{
  "type": "FeatureCollection",
  "features": [
    {
      "type": "Feature",
      "properties": {},
      "geometry": {
        "type": "LineString",
        "coordinates": [
          [
            51.148009,
            43.6847066
          ],
          [
            51.1498358,
            43.6818763
          ],
          [
            51.1500359,
            43.6811055
          ],
          [
            51.1502169,
            43.680283
          ],
          [
            51.1509754,
            43.680336
          ],
          [
            51.1530342,
            43.6804512
          ],
          [
            51.1552829,
            43.6809559
          ],
          [
            51.1560066,
            43.6812924
          ],
          [
            51.155208,
            43.6825238
          ],
          [
            51.1521511,
            43.6872229
          ],
          [
            51.1517935,
            43.6880213
          ],
          [
            51.1527225,
            43.6869042
          ],
          [
            51.155289,
            43.6828165
          ],
          [
            51.1562022,
            43.6814102
          ],
          [
            51.1571011,
            43.6818602
          ],
          [
            51.158505,
            43.6825686
          ],
          [
            51.1642127,
            43.6855649
          ],
          [
            51.169849,
            43.688466
          ],
          [
            51.1716845,
            43.6894292
          ],
          [
            51.1723769,
            43.6897724
          ],
          [
            51.17352,
            43.6883956
          ],
          [
            51.1744555,
            43.6872311
          ],
          [
            51.1757946,
            43.6862339
          ],
          [
            51.176951,
            43.685485
          ],
          [
            51.1748529,
            43.6828272
          ],
          [
            51.1727391,
            43.6812637
          ],
          [
            51.1703569,
            43.6799712
          ],
          [
            51.1685731,
            43.6790096
          ],
          [
            51.1736561,
            43.677564
          ]
        ]
      }
    },
    {
      "type": "Feature",
      "properties": {
        "key": "a",
        "name": "Маршрут 5"
      },
      "geometry": {
        "type": "LineString",
        "coordinates": [
          [
            51.1736218,
            43.6775752
          ],
          [
            51.1774912,
            43.6765245
          ],
          [
            51.1785535,
            43.6762162
          ],
          [
            51.1772571,
            43.6737883
          ],
          [
            51.175703,
            43.6709063
          ],
          [
            51.1743894,
            43.6695804
          ],
          [
            51.1729498,
            43.6684633
          ],
          [
            51.1696069,
            43.6666323
          ],
          [
            51.1672803,
            43.6653636
          ],
          [
            51.1638813,
            43.6636031
          ],
          [
            51.1595524,
            43.6613174
          ],
          [
            51.1573814,
            43.660146
          ],
          [
            51.1562378,
            43.6596541
          ],
          [
            51.1557104,
            43.6601197
          ],
          [
            51.1547542,
            43.6611076
          ],
          [
            51.154136,
            43.6622479
          ],
          [
            51.154374,
            43.6644528
          ],
          [
            51.1546378,
            43.6652621
          ],
          [
            51.1528861,
            43.6655636
          ],
          [
            51.1481028,
            43.6662996
          ],
          [
            51.1437155,
            43.6670565
          ],
          [
            51.1399393,
            43.6684779
          ],
          [
            51.1384907,
            43.6690128
          ],
          [
            51.1375131,
            43.6691232
          ],
          [
            51.1364169,
            43.6689417
          ],
          [
            51.1354051,
            43.6687697
          ],
          [
            51.135901,
            43.6674852
          ],
          [
            51.1365966,
            43.6661178
          ],
          [
            51.1373298,
            43.6650571
          ],
          [
            51.1386303,
            43.6640118
          ],
          [
            51.1415044,
            43.6621291
          ],
          [
            51.143146,
            43.6609415
          ],
          [
            51.1444587,
            43.6592073
          ],
          [
            51.1458712,
            43.65767
          ],
          [
            51.1491805,
            43.6542309
          ],
          [
            51.1513583,
            43.6528546
          ],
          [
            51.1516674,
            43.6524744
          ],
          [
            51.1512965,
            43.652139
          ],
          [
            51.1509874,
            43.6514681
          ],
          [
            51.1508107,
            43.6506559
          ],
          [
            51.1506474,
            43.6484935
          ],
          [
            51.1504929,
            43.6472858
          ],
          [
            51.1509256,
            43.6466596
          ],
          [
            51.1516105,
            43.6460368
          ]
        ]
      }
    },
    {
      "type": "Feature",
      "properties": {},
      "geometry": {
        "type": "LineString",
        "coordinates": [
          [
            51.1516013,
            43.6460414
          ],
          [
            51.154916,
            43.6466622
          ],
          [
            51.1574268,
            43.6474007
          ],
          [
            51.158758,
            43.6460061
          ],
          [
            51.1614809,
            43.64325
          ],
          [
            51.1611739,
            43.6433481
          ]
        ]
      }
    }
  ]
}
